{
  "type": "FeatureCollection",
  "features": [
    {
      "type": "Feature",
      "id": 5279077238486205,
      "geometry": {
        "type": "Polygon",
        "coordinates": [
          [
            [
              -96.47163927555084,
              30.633527020573485
            ],
            [
              -96.47163927555084,
              30.63341624142988
            ],
            [
              -96.47173583507538,
              30.63341624142988
            ],
            [
              -96.47173583507538,
              30.633527020573485
            ],
            [
              -96.47163927555084,
              30.633527020573485
            ]
          ]
        ]
      },
      "properties": {
        "type": "building",
        "height": 3.0,
        "extrude": "true",
        "iso_3166_2": "US-TX",
        "min_height": 0.0,
        "iso_3166_1": "US",
        "underground": "false"
      }
    },
    {
      "type": "Feature",
      "id": 4373497145509985,
      "geometry": {
        "type": "Polygon",
        "coordinates": [
          [
            [
              -96.47255390882492,
              30.633226993726225
            ],
            [
              -96.47242248058319,
              30.6332246858274
            ],
            [
              -96.4724251627922,
              30.63311621458262
            ],
            [
              -96.47255390882492,
              30.63311621458262
            ],
            [
              -96.47255390882492,
              30.633226993726225
            ]
          ]
        ]
      },
      "properties": {
        "type": "building",
        "extrude": "true",
        "height": 3.3062074,
        "iso_3166_2": "US-TX",
        "min_height": 0.0,
        "iso_3166_1": "US",
        "underground": "false"
      }
    },
    {
      "type": "Feature",
      "id": 2689005784549885,
      "geometry": {
        "type": "Polygon",
        "coordinates": [
          [
            [
              -96.47238224744797,
              30.633413933531056
            ],
            [
              -96.47228300571442,
              30.633409317733406
            ],
            [
              -96.47228837013245,
              30.633296230690977
            ],
            [
              -96.472387611866,
              30.633298538589802
            ],
            [
              -96.47238224744797,
              30.633413933531056
            ]
          ]
        ]
      },
      "properties": {
        "type": "building",
        "height": 3.0,
        "extrude": "true",
        "iso_3166_2": "US-TX",
        "min_height": 0.0,
        "iso_3166_1": "US",
        "underground": "false"
      }
    },
    {
      "type": "Feature",
      "id": 785148180937025,
      "geometry": {
        "type": "Polygon",
        "coordinates": [
          [
            [
              -96.47237688302994,
              30.633700112985366
            ],
            [
              -96.47224545478821,
              30.63369780508654
            ],
            [
              -96.47224813699722,
              30.63361241283001
            ],
            [
              -96.47237956523895,
              30.63361702862766
            ],
            [
              -96.47237688302994,
              30.633700112985366
            ]
          ]
        ]
      },
      "properties": {
        "type": "building",
        "height": 3.0,
        "extrude": "true",
        "iso_3166_2": "US-TX",
        "min_height": 0.0,
        "iso_3166_1": "US",
        "underground": "false"
      }
    },
    {
      "type": "Feature",
      "id": 1044458570643615,
      "geometry": {
        "type": "Polygon",
        "coordinates": [
          [
            [
              -96.47242248058319,
              30.63273771917531
            ],
            [
              -96.47229373455048,
              30.632684637502333
            ],
            [
              -96.47237151861191,
              30.632548471471654
            ],
            [
              -96.47250026464462,
              30.632599245245807
            ],
            [
              -96.47242248058319,
              30.63273771917531
            ]
          ]
        ]
      },
      "properties": {
        "type": "building",
        "extrude": "true",
        "height": 3.2393532,
        "iso_3166_2": "US-TX",
        "min_height": 0.0,
        "iso_3166_1": "US",
        "underground": "false"
      }
    },
    {
      "type": "Feature",
      "id": 3116510516459495,
      "geometry": {
        "type": "Polygon",
        "coordinates": [
          [
            [
              -96.4784762263298,
              30.630732155096325
            ],
            [
              -96.4784762263298,
              30.630563678482094
            ],
            [
              -96.47862106561661,
              30.630563678482094
            ],
            [
              -96.47862374782562,
              30.630732155096325
            ],
            [
              -96.4784762263298,
              30.630732155096325
            ]
          ]
        ]
      },
      "properties": {
        "type": "building",
        "height": 3.0,
        "extrude": "true",
        "iso_3166_2": "US-TX",
        "min_height": 0.0,
        "iso_3166_1": "US",
        "underground": "false"
      }
    },
    {
      "type": "Feature",
      "id": 1872437638567115,
      "geometry": {
        "type": "Polygon",
        "coordinates": [
          [
            [
              -96.4757913351059,
              30.630427512451416
            ],
            [
              -96.47554457187653,
              30.63042520455259
            ],
            [
              -96.47554457187653,
              30.63035135179019
            ],
            [
              -96.47579401731491,
              30.63035135179019
            ],
            [
              -96.4757913351059,
              30.630427512451416
            ]
          ]
        ]
      },
      "properties": {
        "type": "building",
        "height": 3.0,
        "extrude": "true",
        "iso_3166_2": "US-TX",
        "min_height": 0.0,
        "iso_3166_1": "US",
        "underground": "false"
      }
    },
    {
      "type": "Feature",
      "id": 2943967285694655,
      "geometry": {
        "type": "Polygon",
        "coordinates": [
          [
            [
              -96.47450655698776,
              30.632495389798677
            ],
            [
              -96.47425979375839,
              30.632493081899852
            ],
            [
              -96.47426247596741,
              30.63241922913745
            ],
            [
              -96.47451192140579,
              30.63241922913745
            ],
            [
              -96.47450655698776,
              30.632495389798677
            ]
          ]
        ]
      },
      "properties": {
        "type": "building",
        "height": 3.0,
        "extrude": "true",
        "iso_3166_2": "US-TX",
        "min_height": 0.0,
        "iso_3166_1": "US",
        "underground": "false"
      }
    },
    {
      "type": "Feature",
      "id": 2043123095251005,
      "geometry": {
        "type": "Polygon",
        "coordinates": [
          [
            [
              -96.47519588470459,
              30.633072364504947
            ],
            [
              -96.47519588470459,
              30.63290619578954
            ],
            [
              -96.4753594994545,
              30.63290619578954
            ],
            [
              -96.4753594994545,
              30.633072364504947
            ],
            [
              -96.47519588470459,
              30.633072364504947
            ]
          ]
        ]
      },
      "properties": {
        "type": "building",
        "extrude": "true",
        "height": 3.7166667,
        "iso_3166_2": "US-TX",
        "min_height": 0.0,
        "iso_3166_1": "US",
        "underground": "false"
      }
    },
    {
      "type": "Feature",
      "id": 1699618568385215,
      "geometry": {
        "type": "Polygon",
        "coordinates": [
          [
            [
              -96.47481501102448,
              30.632716948085886
            ],
            [
              -96.47481501102448,
              30.632576166257557
            ],
            [
              -96.47500813007355,
              30.632576166257557
            ],
            [
              -96.47500813007355,
              30.632716948085886
            ],
            [
              -96.47481501102448,
              30.632716948085886
            ]
          ]
        ]
      },
      "properties": {
        "type": "building",
        "height": 3.0,
        "extrude": "true",
        "iso_3166_2": "US-TX",
        "min_height": 0.0,
        "iso_3166_1": "US",
        "underground": "false"
      }
    },
    {
      "type": "Feature",
      "id": 5480390280922205,
      "geometry": {
        "type": "Polygon",
        "coordinates": [
          [
            [
              -96.47875249385834,
              30.630778313072828
            ],
            [
              -96.47875517606735,
              30.63043443614789
            ],
            [
              -96.47882491350174,
              30.63043443614789
            ],
            [
              -96.47882223129272,
              30.630778313072828
            ],
            [
              -96.47875249385834,
              30.630778313072828
            ]
          ]
        ]
      },
      "properties": {
        "type": "building",
        "height": 3.0,
        "extrude": "true",
        "iso_3166_2": "US-TX",
        "min_height": 0.0,
        "iso_3166_1": "US",
        "underground": "false"
      }
    },
    {
      "type": "Feature",
      "id": 2769215567347225,
      "geometry": {
        "type": "Polygon",
        "coordinates": [
          [
            [
              -96.47496789693832,
              30.632793108747112
            ],
            [
              -96.47475600242615,
              30.632790800848287
            ],
            [
              -96.47475600242615,
              30.63272387178236
            ],
            [
              -96.47496789693832,
              30.632726179681185
            ],
            [
              -96.47496789693832,
              30.632793108747112
            ]
          ]
        ]
      },
      "properties": {
        "type": "building",
        "height": 3.0,
        "extrude": "true",
        "iso_3166_2": "US-TX",
        "min_height": 0.0,
        "iso_3166_1": "US",
        "underground": "false"
      }
    },
    {
      "type": "Feature",
      "id": 1352456100579925,
      "geometry": {
        "type": "Polygon",
        "coordinates": [
          [
            [
              -96.47364556789398,
              30.630679073423348
            ],
            [
              -96.47360265254974,
              30.630455207237315
            ],
            [
              -96.47370457649231,
              30.63043905194554
            ],
            [
              -96.47375017404556,
              30.630662918131573
            ],
            [
              -96.47364556789398,
              30.630679073423348
            ]
          ]
        ]
      },
      "properties": {
        "type": "building",
        "extrude": "true",
        "height": 2.9493222,
        "iso_3166_2": "US-TX",
        "min_height": 0.0,
        "iso_3166_1": "US",
        "underground": "false"
      }
    },
    {
      "type": "Feature",
      "id": 634073712570185,
      "geometry": {
        "type": "Polygon",
        "coordinates": [
          [
            [
              -96.4745682477951,
              30.631724551591105
            ],
            [
              -96.47423297166824,
              30.63172224369228
            ],
            [
              -96.47423565387726,
              30.63165300672753
            ],
            [
              -96.4745682477951,
              30.631655314626354
            ],
            [
              -96.4745682477951,
              30.631724551591105
            ]
          ]
        ]
      },
      "properties": {
        "type": "building",
        "height": 3.0,
        "extrude": "true",
        "iso_3166_2": "US-TX",
        "min_height": 0.0,
        "iso_3166_1": "US",
        "underground": "false"
      }
    },
    {
      "type": "Feature",
      "id": 3372900910994855,
      "geometry": {
        "type": "Polygon",
        "coordinates": [
          [
            [
              -96.47481501102448,
              30.63255077937048
            ],
            [
              -96.47481501102448,
              30.63240999754215
            ],
            [
              -96.47500813007355,
              30.63240999754215
            ],
            [
              -96.47500813007355,
              30.63255077937048
            ],
            [
              -96.47481501102448,
              30.63255077937048
            ]
          ]
        ]
      },
      "properties": {
        "type": "building",
        "height": 3.0,
        "extrude": "true",
        "iso_3166_2": "US-TX",
        "min_height": 0.0,
        "iso_3166_1": "US",
        "underground": "false"
      }
    },
    {
      "type": "Feature",
      "id": 5259253845542195,
      "geometry": {
        "type": "Polygon",
        "coordinates": [
          [
            [
              -96.47500276565552,
              30.633072364504947
            ],
            [
              -96.47500276565552,
              30.63290619578954
            ],
            [
              -96.47516638040543,
              30.63290619578954
            ],
            [
              -96.47516638040543,
              30.633072364504947
            ],
            [
              -96.47500276565552,
              30.633072364504947
            ]
          ]
        ]
      },
      "properties": {
        "type": "building",
        "height": 3.0,
        "extrude": "true",
        "iso_3166_2": "US-TX",
        "min_height": 0.0,
        "iso_3166_1": "US",
        "underground": "false"
      }
    },
    {
      "type": "Feature",
      "id": 834831024205315,
      "geometry": {
        "type": "Polygon",
        "coordinates": [
          [
            [
              -96.47481501102448,
              30.633284691196852
            ],
            [
              -96.47481501102448,
              30.633213146333276
            ],
            [
              -96.47499203681946,
              30.633213146333276
            ],
            [
              -96.47499203681946,
              30.633284691196852
            ],
            [
              -96.47481501102448,
              30.633284691196852
            ]
          ]
        ]
      },
      "properties": {
        "type": "building",
        "height": 3.0,
        "extrude": "true",
        "iso_3166_2": "US-TX",
        "min_height": 0.0,
        "iso_3166_1": "US",
        "underground": "false"
      }
    },
    {
      "type": "Feature",
      "id": 4791218229001965,
      "geometry": {
        "type": "Polygon",
        "coordinates": [
          [
            [
              -96.47513151168823,
              30.632091507504292
            ],
            [
              -96.47513151168823,
              30.63192764668771
            ],
            [
              -96.47528976202011,
              30.63192764668771
            ],
            [
              -96.47528976202011,
              30.632091507504292
            ],
            [
              -96.47513151168823,
              30.632091507504292
            ]
          ]
        ]
      },
      "properties": {
        "type": "building",
        "height": 3.0,
        "extrude": "true",
        "iso_3166_2": "US-TX",
        "min_height": 0.0,
        "iso_3166_1": "US",
        "underground": "false"
      }
    },
    {
      "type": "Feature",
      "id": 2677789031236525,
      "geometry": {
        "type": "Polygon",
        "coordinates": [
          [
            [
              -96.47494107484818,
              30.632091507504292
            ],
            [
              -96.47494107484818,
              30.63192764668771
            ],
            [
              -96.47509932518005,
              30.63192764668771
            ],
            [
              -96.47509932518005,
              30.632091507504292
            ],
            [
              -96.47494107484818,
              30.632091507504292
            ]
          ]
        ]
      },
      "properties": {
        "type": "building",
        "height": 3.0,
        "extrude": "true",
        "iso_3166_2": "US-TX",
        "min_height": 0.0,
        "iso_3166_1": "US",
        "underground": "false"
      }
    },
    {
      "type": "Feature",
      "id": 4448170231473985,
      "geometry": {
        "type": "Polygon",
        "coordinates": [
          [
            [
              -96.47165536880493,
              30.63493022305913
            ],
            [
              -96.47165536880493,
              30.634627888313045
            ],
            [
              -96.4719745516777,
              30.634627888313045
            ],
            [
              -96.4719745516777,
              30.63493022305913
            ],
            [
              -96.47165536880493,
              30.63493022305913
            ]
          ]
        ]
      },
      "properties": {
        "type": "building",
        "height": 3.0,
        "extrude": "true",
        "iso_3166_2": "US-TX",
        "min_height": 0.0,
        "iso_3166_1": "US",
        "underground": "false"
      }
    },
    {
      "type": "Feature",
      "id": 5397091284489475,
      "geometry": {
        "type": "Polygon",
        "coordinates": [
          [
            [
              -96.47222936153412,
              30.63493022305913
            ],
            [
              -96.47222936153412,
              30.634627888313045
            ],
            [
              -96.47254586219788,
              30.634627888313045
            ],
            [
              -96.47254586219788,
              30.63493022305913
            ],
            [
              -96.47222936153412,
              30.63493022305913
            ]
          ]
        ]
      },
      "properties": {
        "type": "building",
        "height": 3.0,
        "extrude": "true",
        "iso_3166_2": "US-TX",
        "min_height": 0.0,
        "iso_3166_1": "US",
        "underground": "false"
      }
    },
    {
      "type": "Feature",
      "id": 3670197878441465,
      "geometry": {
        "type": "Polygon",
        "coordinates": [
          [
            [
              -96.47473722696304,
              30.633185451547376
            ],
            [
              -96.47473722696304,
              30.63290619578954
            ],
            [
              -96.47481501102448,
              30.63290619578954
            ],
            [
              -96.47497594356537,
              30.632908503688366
            ],
            [
              -96.47497594356537,
              30.633185451547376
            ],
            [
              -96.47473722696304,
              30.633185451547376
            ]
          ]
        ]
      },
      "properties": {
        "type": "building",
        "height": 3.0,
        "extrude": "true",
        "iso_3166_2": "US-TX",
        "min_height": 0.0,
        "iso_3166_1": "US",
        "underground": "false"
      }
    },
    {
      "type": "Feature",
      "id": 512422217412545,
      "geometry": {
        "type": "Polygon",
        "coordinates": [
          [
            [
              -96.47291332483292,
              30.634071684696202
            ],
            [
              -96.47291332483292,
              30.634069376797378
            ],
            [
              -96.4729106426239,
              30.633877821194897
            ],
            [
              -96.47309571504593,
              30.633877821194897
            ],
            [
              -96.47309571504593,
              30.634071684696202
            ],
            [
              -96.47291332483292,
              30.634071684696202
            ]
          ]
        ]
      },
      "properties": {
        "type": "building",
        "extrude": "true",
        "height": 3.026635,
        "iso_3166_2": "US-TX",
        "min_height": 0.0,
        "iso_3166_1": "US",
        "underground": "false"
      }
    },
    {
      "type": "Feature",
      "id": 552658818,
      "geometry": {
        "type": "Polygon",
        "coordinates": [
          [
            [
              -96.47474527359009,
              30.63392628707022
            ],
            [
              -96.47475063800812,
              30.633471631001683
            ],
            [
              -96.47514760494232,
              30.633473938900508
            ],
            [
              -96.47514760494232,
              30.633923979171396
            ],
            [
              -96.47484451532364,
              30.633923979171396
            ],
            [
              -96.47474527359009,
              30.63392628707022
            ]
          ]
        ]
      },
      "properties": {
        "type": "university",
        "extrude": "true",
        "height": 5.2,
        "iso_3166_2": "US-TX",
        "min_height": 0.0,
        "iso_3166_1": "US",
        "underground": "false"
      }
    },
    {
      "type": "Feature",
      "id": 1965654709822115,
      "geometry": {
        "type": "Polygon",
        "coordinates": [
          [
            [
              -96.47425711154938,
              30.63532256585939
            ],
            [
              -96.47425979375839,
              30.63513101025691
            ],
            [
              -96.47430270910263,
              30.63513101025691
            ],
            [
              -96.47430270910263,
              30.63514947344751
            ],
            [
              -96.4743509888649,
              30.63514947344751
            ],
            [
              -96.47434830665588,
              30.635262560489938
            ],
            [
              -96.47430539131165,
              30.635262560489938
            ],
            [
              -96.47430270910263,
              30.63532256585939
            ],
            [
              -96.47425711154938,
              30.63532256585939
            ]
          ]
        ]
      },
      "properties": {
        "type": "building",
        "height": 3.0,
        "extrude": "true",
        "iso_3166_2": "US-TX",
        "min_height": 0.0,
        "iso_3166_1": "US",
        "underground": "false"
      }
    },
    {
      "type": "Feature",
      "id": 552658817,
      "geometry": {
        "type": "Polygon",
        "coordinates": [
          [
            [
              -96.47475063800812,
              30.6349002203744
            ],
            [
              -96.47474259138107,
              30.634491722282366
            ],
            [
              -96.47513419389725,
              30.63448479858589
            ],
            [
              -96.47513955831528,
              30.634687893682496
            ],
            [
              -96.47526293992996,
              30.63468558578367
            ],
            [
              -96.47526562213898,
              30.634893296677927
            ],
            [
              -96.47475063800812,
              30.6349002203744
            ]
          ]
        ]
      },
      "properties": {
        "type": "university",
        "extrude": "true",
        "height": 8.6,
        "iso_3166_2": "US-TX",
        "min_height": 0.0,
        "iso_3166_1": "US",
        "underground": "false"
      }
    },
    {
      "type": "Feature",
      "id": 5596034061799435,
      "geometry": {
        "type": "Polygon",
        "coordinates": [
          [
            [
              -96.47922724485397,
              30.63114757688484
            ],
            [
              -96.47899657487869,
              30.63114526898601
            ],
            [
              -96.47899925708771,
              30.630983716068258
            ],
            [
              -96.47902071475983,
              30.630983716068258
            ],
            [
              -96.47902607917786,
              30.630792160465777
            ],
            [
              -96.47924065589905,
              30.630794468364602
            ],
            [
              -96.479232609272,
              30.631016026651807
            ],
            [
              -96.47924333810806,
              30.631016026651807
            ],
            [
              -96.47924065589905,
              30.63113142159306
            ],
            [
              -96.47922992706299,
              30.63113142159306
            ],
            [
              -96.47922724485397,
              30.63114757688484
            ]
          ]
        ]
      },
      "properties": {
        "type": "building",
        "height": 3.0,
        "extrude": "true",
        "iso_3166_2": "US-TX",
        "min_height": 0.0,
        "iso_3166_1": "US",
        "underground": "false"
      }
    },
    {
      "type": "Feature",
      "id": 1878635332700705,
      "geometry": {
        "type": "Polygon",
        "coordinates": [
          [
            [
              -96.47165536880493,
              30.63521409461461
            ],
            [
              -96.47165536880493,
              30.635128702358084
            ],
            [
              -96.47167682647705,
              30.635128702358084
            ],
            [
              -96.47167682647705,
              30.63510793126866
            ],
            [
              -96.47165536880493,
              30.63510793126866
            ],
            [
              -96.47165536880493,
              30.635015615315655
            ],
            [
              -96.47204160690308,
              30.635015615315655
            ],
            [
              -96.47204160690308,
              30.63504331010156
            ],
            [
              -96.47210329771042,
              30.63504331010156
            ],
            [
              -96.47210329771042,
              30.635015615315655
            ],
            [
              -96.47236078977585,
              30.635015615315655
            ],
            [
              -96.47236078977585,
              30.63510793126866
            ],
            [
              -96.47234201431274,
              30.63510793126866
            ],
            [
              -96.47234201431274,
              30.635128702358084
            ],
            [
              -96.47236078977585,
              30.635128702358084
            ],
            [
              -96.47236078977585,
              30.63521409461461
            ],
            [
              -96.4721006155014,
              30.63521409461461
            ],
            [
              -96.4721006155014,
              30.635188707727536
            ],
            [
              -96.47204160690308,
              30.635188707727536
            ],
            [
              -96.47204160690308,
              30.63521409461461
            ],
            [
              -96.47165536880493,
              30.63521409461461
            ]
          ]
        ]
      },
      "properties": {
        "type": "building",
        "height": 3.0,
        "extrude": "true",
        "iso_3166_2": "US-TX",
        "min_height": 0.0,
        "iso_3166_1": "US",
        "underground": "false"
      }
    }
  ]
}